{
  "type": "FeatureCollection",
  "features": [
    {
      "type": "Feature",
      "properties": {
        "norad_id": 66394,
        "name": "STARLINK-35672",
        "group": "last-30-days",
        "lat": -52.94545372359614,
        "lon": -143.3290100672076,
        "alt_km": 440.7048697749715,
        "timestamp": "2025-12-05T04:52:14.140994+00:00",
        "meta_object_name": "STARLINK-35672",
        "meta_object_id": "2025-257Q",
        "meta_epoch": "2025-12-04T18:00:02.000160",
        "meta_mean_motion": 15.45775147,
        "meta_eccentricity": 0.0001384,
        "meta_inclination": 53.1597,
        "meta_ra_of_asc_node": 302.016,
        "meta_arg_of_pericenter": 108.9213,
        "meta_mean_anomaly": 164.9843,
        "meta_ephemeris_type": 0,
        "meta_classification_type": "U",
        "meta_norad_cat_id": 66394,
        "meta_element_set_no": 999,
        "meta_rev_at_epoch": 521,
        "meta_bstar": -0.045845,
        "meta_mean_motion_dot": -0.02010902,
        "meta_mean_motion_ddot": 0,
        "tle_line1": "1 66394U 25257Q   25338.75002315 -.02010902  00000+0 -45845-1 0  9995",
        "tle_line2": "2 66394  53.1597 302.0160 0001384 108.9213 164.9843 15.45775147  5211"
      },
      "geometry": {
        "type": "Point",
        "coordinates": [
          -143.3290100672076,
          -52.94545372359614
        ]
      }
    },
    {
      "type": "Feature",
      "properties": {
        "norad_id": 66395,
        "name": "STARLINK-35681",
        "group": "last-30-days",
        "lat": -49.32345592075707,
        "lon": -120.89844401171163,
        "alt_km": 423.9016609735236,
        "timestamp": "2025-12-05T04:52:14.141005+00:00",
        "meta_object_name": "STARLINK-35681",
        "meta_object_id": "2025-257R",
        "meta_epoch": "2025-12-04T09:03:09.457056",
        "meta_mean_motion": 15.49346125,
        "meta_eccentricity": 0.0001279,
        "meta_inclination": 53.1595,
        "meta_ra_of_asc_node": 303.7866,
        "meta_arg_of_pericenter": 91.9394,
        "meta_mean_anomaly": 268.1761,
        "meta_ephemeris_type": 0,
        "meta_classification_type": "U",
        "meta_norad_cat_id": 66395,
        "meta_element_set_no": 999,
        "meta_rev_at_epoch": 501,
        "meta_bstar": 0.001087,
        "meta_mean_motion_dot": 0.00060558,
        "meta_mean_motion_ddot": 0,
        "tle_line1": "1 66395U 25257R   25338.37719279  .00060558  00000+0  10870-2 0  9997",
        "tle_line2": "2 66395  53.1595 303.7866 0001279  91.9394 268.1761 15.49346125  5013"
      },
      "geometry": {
        "type": "Point",
        "coordinates": [
          -120.89844401171163,
          -49.32345592075707
        ]
      }
    },
    {
      "type": "Feature",
      "properties": {
        "norad_id": 66396,
        "name": "STARLINK-35669",
        "group": "last-30-days",
        "lat": -48.45738804742197,
        "lon": -117.96540908956794,
        "alt_km": 423.5887525877142,
        "timestamp": "2025-12-05T04:52:14.141015+00:00",
        "meta_object_name": "STARLINK-35669",
        "meta_object_id": "2025-257S",
        "meta_epoch": "2025-12-04T09:02:39.769152",
        "meta_mean_motion": 15.49365522,
        "meta_eccentricity": 0.0001327,
        "meta_inclination": 53.1591,
        "meta_ra_of_asc_node": 303.7835,
        "meta_arg_of_pericenter": 104.0612,
        "meta_mean_anomaly": 256.0545,
        "meta_ephemeris_type": 0,
        "meta_classification_type": "U",
        "meta_norad_cat_id": 66396,
        "meta_element_set_no": 999,
        "meta_rev_at_epoch": 508,
        "meta_bstar": 0.0021205,
        "meta_mean_motion_dot": 0.00119543,
        "meta_mean_motion_ddot": 0,
        "tle_line1": "1 66396U 25257S   25338.37684918  .00119543  00000+0  21205-2 0  9992",
        "tle_line2": "2 66396  53.1591 303.7835 0001327 104.0612 256.0545 15.49365522  5084"
      },
      "geometry": {
        "type": "Point",
        "coordinates": [
          -117.96540908956794,
          -48.45738804742197
        ]
      }
    },
    {
      "type": "Feature",
      "properties": {
        "norad_id": 66397,
        "name": "STARLINK-35510",
        "group": "last-30-days",
        "lat": -47.66059462292755,
        "lon": -115.53973216471202,
        "alt_km": 423.70647273054055,
        "timestamp": "2025-12-05T04:52:14.141024+00:00",
        "meta_object_name": "STARLINK-35510",
        "meta_object_id": "2025-257T",
        "meta_epoch": "2025-12-04T09:02:10.176288",
        "meta_mean_motion": 15.49355172,
        "meta_eccentricity": 0.0001328,
        "meta_inclination": 53.1593,
        "meta_ra_of_asc_node": 303.7814,
        "meta_arg_of_pericenter": 96.2054,
        "meta_mean_anomaly": 263.9107,
        "meta_ephemeris_type": 0,
        "meta_classification_type": "U",
        "meta_norad_cat_id": 66397,
        "meta_element_set_no": 999,
        "meta_rev_at_epoch": 508,
        "meta_bstar": 0.0016344,
        "meta_mean_motion_dot": 0.00091673,
        "meta_mean_motion_ddot": 0,
        "tle_line1": "1 66397U 25257T   25338.37650667  .00091673  00000+0  16344-2 0  9998",
        "tle_line2": "2 66397  53.1593 303.7814 0001328  96.2054 263.9107 15.49355172  5088"
      },
      "geometry": {
        "type": "Point",
        "coordinates": [
          -115.53973216471202,
          -47.66059462292755
        ]
      }
    },
    {
      "type": "Feature",
      "properties": {
        "norad_id": 66398,
        "name": "STARLINK-35642",
        "group": "last-30-days",
        "lat": -46.66130278877242,
        "lon": -112.78819808099439,
        "alt_km": 423.27819522087975,
        "timestamp": "2025-12-05T04:52:14.141033+00:00",
        "meta_object_name": "STARLINK-35642",
        "meta_object_id": "2025-257U",
        "meta_epoch": "2025-12-04T09:01:40.325088",
        "meta_mean_motion": 15.49380516,
        "meta_eccentricity": 0.0001351,
        "meta_inclination": 53.1593,
        "meta_ra_of_asc_node": 303.7781,
        "meta_arg_of_pericenter": 84.2125,
        "meta_mean_anomaly": 275.9038,
        "meta_ephemeris_type": 0,
        "meta_classification_type": "U",
        "meta_norad_cat_id": 66398,
        "meta_element_set_no": 999,
        "meta_rev_at_epoch": 508,
        "meta_bstar": 0.0025546,
        "meta_mean_motion_dot": 0.00144651,
        "meta_mean_motion_ddot": 0,
        "tle_line1": "1 66398U 25257U   25338.37616117  .00144651  00000+0  25546-2 0  9990",
        "tle_line2": "2 66398  53.1593 303.7781 0001351  84.2125 275.9038 15.49380516  5080"
      },
      "geometry": {
        "type": "Point",
        "coordinates": [
          -112.78819808099439,
          -46.66130278877242
        ]
      }
    },
    {
      "type": "Feature",
      "properties": {
        "norad_id": 66399,
        "name": "STARLINK-35657",
        "group": "last-30-days",
        "lat": -45.866226038331384,
        "lon": -110.78137244273984,
        "alt_km": 423.5886055259407,
        "timestamp": "2025-12-05T04:52:14.141042+00:00",
        "meta_object_name": "STARLINK-35657",
        "meta_object_id": "2025-257V",
        "meta_epoch": "2025-12-04T15:12:45.135936",
        "meta_mean_motion": 15.49347537,
        "meta_eccentricity": 0.0001599,
        "meta_inclination": 53.1593,
        "meta_ra_of_asc_node": 302.5434,
        "meta_arg_of_pericenter": 83.6816,
        "meta_mean_anomaly": 276.4375,
        "meta_ephemeris_type": 0,
        "meta_classification_type": "U",
        "meta_norad_cat_id": 66399,
        "meta_element_set_no": 999,
        "meta_rev_at_epoch": 512,
        "meta_bstar": 0.003075,
        "meta_mean_motion_dot": 0.00174685,
        "meta_mean_motion_ddot": 0,
        "tle_line1": "1 66399U 25257V   25338.63385574  .00174685  00000+0  30750-2 0  9993",
        "tle_line2": "2 66399  53.1593 302.5434 0001599  83.6816 276.4375 15.49347537  5128"
      },
      "geometry": {
        "type": "Point",
        "coordinates": [
          -110.78137244273984,
          -45.866226038331384
        ]
      }
    },
    {
      "type": "Feature",
      "properties": {
        "norad_id": 66400,
        "name": "STARLINK-35667",
        "group": "last-30-days",
        "lat": -43.83092975895745,
        "lon": -106.22117613318757,
        "alt_km": 423.49448479439616,
        "timestamp": "2025-12-05T04:52:14.141051+00:00",
        "meta_object_name": "STARLINK-35667",
        "meta_object_id": "2025-257W",
        "meta_epoch": "2025-12-04T15:11:45.785184",
        "meta_mean_motion": 15.4934846,
        "meta_eccentricity": 0.000164,
        "meta_inclination": 53.1595,
        "meta_ra_of_asc_node": 302.5381,
        "meta_arg_of_pericenter": 82.5247,
        "meta_mean_anomaly": 277.5949,
        "meta_ephemeris_type": 0,
        "meta_classification_type": "U",
        "meta_norad_cat_id": 66400,
        "meta_element_set_no": 999,
        "meta_rev_at_epoch": 512,
        "meta_bstar": 0.0030129,
        "meta_mean_motion_dot": 0.00171072,
        "meta_mean_motion_ddot": 0,
        "tle_line1": "1 66400U 25257W   25338.63316881  .00171072  00000+0  30129-2 0  9998",
        "tle_line2": "2 66400  53.1595 302.5381 0001640  82.5247 277.5949 15.49348460  5122"
      },
      "geometry": {
        "type": "Point",
        "coordinates": [
          -106.22117613318757,
          -43.83092975895745
        ]
      }
    }
  ]
}